STARLINK-2007_new
1 17602C 21009BG  21326.10728363  .00009557  00000-0  64027-3 0  3267
2 17602  53.0519 213.2496 0002084  66.6568  85.2158 15.06391105    13
STARLINK-2007_old
1 27602C 21009BG  21325.15850512  .00008921  00000-0  59778-3 0  3253
2 27602  53.0523 217.5088 0002006  65.8744 337.9080 15.06383400    13
